$$SOE
2461295.500000000, A.D. 2026-Sep-12 00:00:00.0000, -5.805518832914996E+07, -3.739153287593495E+08, 3.116771745434184E+07,
2461302.500000000, A.D. 2026-Sep-19 00:00:00.0000, -4.722577756457964E+07, -3.769726092384579E+08, 2.918790283995354E+07,
2461309.500000000, A.D. 2026-Sep-26 00:00:00.0000, -3.635489830823844E+07, -3.796991483544674E+08, 2.718247429427359E+07,
2461316.500000000, A.D. 2026-Oct-03 00:00:00.0000, -2.545243017666260E+07, -3.820961079625747E+08, 2.515344587556212E+07,
2461323.500000000, A.D. 2026-Oct-10 00:00:00.0000, -1.452807288891837E+07, -3.841649361032225E+08, 2.310281119407724E+07,
2461330.500000000, A.D. 2026-Oct-17 00:00:00.0000, -3.591341229773018E+06, -3.859073534667225E+08, 2.103254170304269E+07,
2461337.500000000, A.D. 2026-Oct-24 00:00:00.0000, 7.348439195389451E+06, -3.873253402005457E+08, 1.894458514899690E+07,
2461344.500000000, A.D. 2026-Oct-31 00:00:00.0000, 1.828213556060853E+07, -3.884211231603078E+08, 1.684086415978435E+07,
2461351.500000000, A.D. 2026-Nov-07 00:00:00.0000, 2.920081116000142E+07, -3.891971635602094E+08, 1.472327493783922E+07,
2461358.500000000, A.D. 2026-Nov-14 00:00:00.0000, 4.009572873538188E+07, -3.896561441603789E+08, 1.259368610534333E+07,
2461365.500000000, A.D. 2026-Nov-21 00:00:00.0000, 5.095835202352513E+07, -3.898009553287591E+08, 1.045393791542016E+07,
2461372.500000000, A.D. 2026-Nov-28 00:00:00.0000, 6.178034456901947E+07, -3.896346829998033E+08, 8.305841667191625E+06,
2461379.500000000, A.D. 2026-Dec-05 00:00:00.0000, 7.255356946624990E+07, -3.891605991982749E+08, 6.151178931428999E+06,
2461386.500000000, A.D. 2026-Dec-12 00:00:00.0000, 8.327009023764510E+07, -3.883821520283347E+08, 3.991700818703890E+06,
2461393.500000000, A.D. 2026-Dec-19 00:00:00.0000, 9.392217100057006E+07, -3.873029551294822E+08, 1.829127456584156E+06,
2461400.500000000, A.D. 2026-Dec-26 00:00:00.0000, 1.045022758182541E+08, -3.859267774718947E+08, -3.348523890460134E+05,
2461407.500000000, A.D. 2027-Jan-02 00:00:00.0000, 1.150030675463957E+08, -3.842575336840565E+08, -2.498581596360356E+06,
2461414.500000000, A.D. 2027-Jan-09 00:00:00.0000, 1.254174063258784E+08, -3.822992748921092E+08, -4.660434889500827E+06,
2461421.500000000, A.D. 2027-Jan-16 00:00:00.0000, 1.357383477883162E+08, -3.800561800592569E+08, -6.818818969158947E+06,
2461428.500000000, A.D. 2027-Jan-23 00:00:00.0000, 1.459591410504486E+08, -3.775325478602612E+08, -8.972172585673243E+06,
2461435.500000000, A.D. 2027-Jan-30 00:00:00.0000, 1.560732267139039E+08, -3.747327891338933E+08, -1.111896658181718E+07,
2461442.500000000, A.D. 2027-Feb-06 00:00:00.0000, 1.660742353217649E+08, -3.716614195685151E+08, -1.325770392218582E+07,
2461449.500000000, A.D. 2027-Feb-13 00:00:00.0000, 1.759559858356295E+08, -3.683230513953784E+08, -1.538691957283254E+07,
2461456.500000000, A.D. 2027-Feb-20 00:00:00.0000, 1.857124817908995E+08, -3.647223848723014E+08, -1.750518008440845E+07,
2461463.500000000, A.D. 2027-Feb-27 00:00:00.0000, 1.953379065470956E+08, -3.608642027602000E+08, -1.961108327469012E+07,
2461470.500000000, A.D. 2027-Mar-06 00:00:00.0000, 2.048266206727509E+08, -3.567533658591948E+08, -2.170325813510229E+07,
2461477.500000000, A.D. 2027-Mar-13 00:00:00.0000, 2.141731598851210E+08, -3.523948075457832E+08, -2.378036465159070E+07,
2461484.500000000, A.D. 2027-Mar-20 00:00:00.0000, 2.233722324337160E+08, -3.477935281364279E+08, -2.584109350883986E+07,
2461491.500000000, A.D. 2027-Mar-27 00:00:00.0000, 2.324187161463276E+08, -3.429545896166390E+08, -2.788416574535772E+07,
2461498.500000000, A.D. 2027-Apr-03 00:00:00.0000, 2.413076553551763E+08, -3.378831107732038E+08, -2.990833238578700E+07,
2461505.500000000, A.D. 2027-Apr-10 00:00:00.0000, 2.500342577766704E+08, -3.325842626957600E+08, -3.191237405764531E+07,
2461512.500000000, A.D. 2027-Apr-17 00:00:00.0000, 2.585938913767229E+08, -3.270632646494749E+08, -3.389510059867838E+07,
2461519.500000000, A.D. 2027-Apr-24 00:00:00.0000, 2.669820813100477E+08, -3.213253803660689E+08, -3.585535066968246E+07,
2461526.500000000, A.D. 2027-May-01 00:00:00.0000, 2.751945072442280E+08, -3.153759147099569E+08, -3.779199140027879E+07,
2461533.500000000, A.D. 2027-May-08 00:00:00.0000, 2.832270013893996E+08, -3.092202099587777E+08, -3.970391803708342E+07,
2461540.500000000, A.D. 2027-May-15 00:00:00.0000, 2.910755457493858E+08, -3.028636407365682E+08, -4.159005338171890E+07,
2461547.500000000, A.D. 2027-May-22 00:00:00.0000, 2.987362670393667E+08, -2.963116101834323E+08, -4.344934708957727E+07,
2461554.500000000, A.D. 2027-May-29 00:00:00.0000, 3.062054326324177E+08, -2.895695488201640E+08, -4.528077525925067E+07,
2461561.500000000, A.D. 2027-Jun-05 00:00:00.0000, 3.134794484261817E+08, -2.826429129661947E+08, -4.708334013971007E+07,
2461568.500000000, A.D. 2027-Jun-12 00:00:00.0000, 3.205548566279672E+08, -2.755371822698147E+08, -4.885606973748465E+07,
2461575.500000000, A.D. 2027-Jun-19 00:00:00.0000, 3.274283331320444E+08, -2.682578572759857E+08, -5.059801737130553E+07,
2461582.500000000, A.D. 2027-Jun-26 00:00:00.0000, 3.340966847729256E+08, -2.608104572831098E+08, -5.230826122242415E+07,
2461589.500000000, A.D. 2027-Jul-03 00:00:00.0000, 3.405568465909514E+08, -2.532005184708273E+08, -5.398590389316659E+07,
2461596.500000000, A.D. 2027-Jul-10 00:00:00.0000, 3.468058791508318E+08, -2.454335922810895E+08, -5.563007197743277E+07,
2461603.500000000, A.D. 2027-Jul-17 00:00:00.0000, 3.528409659524655E+08, -2.375152440827650E+08, -5.723991565056561E+07,
2461610.500000000, A.D. 2027-Jul-24 00:00:00.0000, 3.586594110924927E+08, -2.294510521737393E+08, -5.881460829878400E+07,
2461617.500000000, A.D. 2027-Jul-31 00:00:00.0000, 3.642586375903248E+08, -2.212466068757366E+08, -6.035334620726526E+07,
2461624.500000000, A.D. 2027-Aug-07 00:00:00.0000, 3.696361861817521E+08, -2.129075085622956E+08, -6.185534819518527E+07,
2461631.500000000, A.D. 2027-Aug-14 00:00:00.0000, 3.747897122822155E+08, -2.044393648678483E+08, -6.331985500838195E+07,
2461638.500000000, A.D. 2027-Aug-21 00:00:00.0000, 3.797169817376753E+08, -1.958477904360070E+08, -6.474612880176484E+07,
2461645.500000000, A.D. 2027-Aug-28 00:00:00.0000, 3.844158687929259E+08, -1.871384079952849E+08, -6.613345292780714E+07,
2461652.500000000, A.D. 2027-Sep-04 00:00:00.0000, 3.888843550969980E+08, -1.783168482516164E+08, -6.748113171850272E+07,
2461659.500000000, A.D. 2027-Sep-11 00:00:00.0000, 3.931205283519099E+08, -1.693887492517486E+08, -6.878849018735963E+07,
2461666.500000000, A.D. 2027-Sep-18 00:00:00.0000, 3.971225807394752E+08, -1.603597558606931E+08, -7.005487371744986E+07,
2461673.500000000, A.D. 2027-Sep-25 00:00:00.0000, 4.008888073567314E+08, -1.512355194241123E+08, -7.127964776372659E+07,
2461680.500000000, A.D. 2027-Oct-02 00:00:00.0000, 4.044176047369235E+08, -1.420216975818635E+08, -7.246219757530859E+07,
2461687.500000000, A.D. 2027-Oct-09 00:00:00.0000, 4.077074694802673E+08, -1.327239542317018E+08, -7.360192794130464E+07,
2461694.500000000, A.D. 2027-Oct-16 00:00:00.0000, 4.107569970587249E+08, -1.233479596931317E+08, -7.469826297146782E+07,
2461701.500000000, A.D. 2027-Oct-23 00:00:00.0000, 4.135648810543732E+08, -1.138993910720862E+08, -7.575064593657500E+07,
2461708.500000000, A.D. 2027-Oct-30 00:00:00.0000, 4.161299132054291E+08, -1.043839322098116E+08, -7.675853915322101E+07,
2461715.500000000, A.D. 2027-Nov-06 00:00:00.0000, 4.184509830983317E+08, -9.480727208148086E+07, -7.772142371470207E+07,
2461722.500000000, A.D. 2027-Nov-13 00:00:00.0000, 4.205270755232758E+08, -8.517510371699721E+07, -7.863879905663334E+07,
2461729.500000000, A.D. 2027-Nov-20 00:00:00.0000, 4.223572683944697E+08, -7.549312582631701E+07, -7.951018280243079E+07,
2461736.500000000, A.D. 2027-Nov-27 00:00:00.0000, 4.239407328512980E+08, -6.576704415917696E+07, -8.033511079461408E+07,
2461743.500000000, A.D. 2027-Dec-04 00:00:00.0000, 4.252767335175970E+08, -5.600257167990504E+07, -8.111313705196780E+07,
2461750.500000000, A.D. 2027-Dec-11 00:00:00.0000, 4.263646283696941E+08, -4.620542851709554E+07, -8.184383368136777E+07,
2461757.500000000, A.D. 2027-Dec-18 00:00:00.0000, 4.272038684885864E+08, -3.638134202367663E+07, -8.252679079752143E+07,
2461764.500000000, A.D. 2027-Dec-25 00:00:00.0000, 4.277939978475381E+08, -2.653604694605562E+07, -8.316161646466611E+07,
2461771.500000000, A.D. 2028-Jan-01 00:00:00.0000, 4.281346531748443E+08, -1.667528568372007E+07, -8.374793666232975E+07,
$$EOE